#dP2021  6  6 12  0  0.00000000      96 __u+U ITR00 EXT  IAC
## 2161  43200.00000000   900.00000000 59371 0.5000000000000
+  116   C06C07C08C09C10C11C12C13C14C16C19C20C21C22C23C24C25
+        C26C27C28C29C30C32C33C34C35C36C37C38C39C40C41C42C43
+        C44C45C46E01E02E03E04E05E07E08E09E11E12E13E14E15E18
+        E19E21E24E25E26E27E30E31E33E36G01G02G03G04G05G06G07
+        G08G09G10G12G13G14G15G16G17G18G19G20G21G22G23G24G25
+        G26G27G28G29G30G31G32J01J02J03R01R02R03R04R05R07R08
+        R09R11R12R13R14R15R16R17R18R19R20R21R22R24  0  0  0
++        10  8 12 10  7  9  8 16  8  9  8  8  8  8  8  8  8
++         8 10  8  7  8  7  8  9  8  8  9 10 10  9  9  8 10
++        10  9  8  7  7  7  7  8  8  7  9  7  8  7  8  7  8
++         8  7  7  8  7  8  7  7  8  8  7  8  7  7  8  7  7
++         6  8  8  7  7  7  8  8  7  8  6  7  6  7  7  6  7
++         8  7  7  8  7  8  6 10  9  8  9  8  7  8  7  8  8
++         9  9  8  7  6  7  9 10  7  8  8  8  9  9  0  0  0
%c M  cc GPS ccc cccc cccc cccc cccc ccccc ccccc ccccc ccccc
%c cc cc ccc ccc cccc cccc cccc cccc ccccc ccccc ccccc ccccc
%f  0.0000000  0.000000000  0.00000000000  0.000000000000000
%f  0.0000000  0.000000000  0.00000000000  0.000000000000000
%i    0    0    0    0      0      0      0      0         0
%i    0    0    0    0      0      0      0      0         0
/* IAC                                ULTRA-RAPID PREDICTION
/* S/V CLOCKS ARE ALIGNED TO GNSS TIME                      
/* G:C1WC2W R:C1PC2P E:C1XC5X C:C2IC6I J:C1CC2S             
/* PCV:IGS14_2148 OL/AL:FES2004  NONE     YN ORB:CoN CLK:CoN
*  2021 06 06 18 30  0.00000000
PC06 -17683.971911  21290.189612  32163.463481    472.004699
PC07 -21020.020289  36856.388738  -1431.115631    101.668265
PC08  -4480.617128  30238.010072 -28772.532247   -892.809908
PC09   -726.339576  24826.082232  34405.963480    467.946876
PC10  -8967.789642  38566.496672 -14941.021733    -33.094084
PC11 -25610.944763   1409.438510 -10986.877594    384.405751
PC12 -25251.407106  -9986.092421   6503.918309    854.009109
PC13   4532.976252  37076.593229 -19221.792598    289.880969
PC14 -22019.505709  11627.397711 -12630.919653    929.267387
PC16 -14790.180768  21679.864038  33086.414257   -882.543668
PC19  20222.699468 -18818.839292   3897.321899    862.730758
PC20  20585.429092  -4073.377130  18398.312059   -886.548090
PC21  -8640.077828 -13847.433826 -22609.358507   -936.552286
PC22   8108.004742 -23087.690848 -13376.012849   -951.467343
PC23   1102.861436  26134.482680   9736.105147   -927.615964
PC24 -17651.283821  -7507.826028  20271.092728   -881.631278
PC25 -11075.884307  14262.324610  21268.466104   -905.155193
PC26 -14093.293671 -22682.830310   8150.510824    896.455629
PC27  18979.569272  14509.907682 -14458.919899    543.999667
PC28   -687.964438  16018.255326 -22841.799252    -65.461300
PC29  19571.388129  -8899.557536  17781.240972    402.522806
PC30  27593.979372   3810.750189   1860.233080    469.739895
PC32   8733.133317  13841.344512  22624.215432   -926.731723
PC33 -20141.212208  18932.171736  -3907.342426   -936.569251
PC34 -27569.049530  -3346.372422  -2619.436320   -656.403120
PC35    587.054606 -16032.798065  22820.981368   -245.636790
PC36  11587.886664 -13654.896799 -21373.130230   -727.012659
PC37  13124.865554  23499.964270  -7318.511107   -879.311452
PC38  -2966.222570  33362.241973 -25503.894566    153.584955
PC39 -11420.312591  22957.338240  33458.291502     31.613225
PC40 -17882.891617  36194.006162 -12394.986474    168.396455
PC41  -8251.977264  23207.486420  13170.721779   -946.154002
PC42 -20368.150030   3414.092716 -18729.756231   -913.430701
PC43 -20026.029121   8609.593353 -17421.536179   -764.419507
PC44 -19255.246438 -13990.388562  14529.031900    226.126261
PC45  -1312.621540 -26160.868022  -9640.169284    460.205026
PC46  17494.405517   6343.395094 -20777.669446    236.457841
PE01   1981.336910 -29236.341006   4183.227909  -1123.685004
PE02  -1892.528470  29218.421952  -4307.941053    224.284342
PE03  -3404.506891  18577.514401  22800.700747   -439.087940
PE04 -17272.026754  -9994.934127 -21850.921383   -786.836924
PE05 -22385.524853  16369.081942  10365.462855   -275.030191
PE07  28117.798361  -4628.931920   7997.911354   -546.714377
PE08  17549.092541   9594.767849  21823.635556   5990.194887
PE09 -28114.813374   4966.095526  -7839.651999   5642.531647
PE11 -24155.999306  -5972.147451 -16029.980954   5884.738493
PE12 -21877.364468 -19751.601013   2595.123816   5173.272347
PE13  24279.369645   6331.384982  15709.517311    417.402412
PE14 -28751.354632   6798.771842  -4236.930105  -1457.030901
PE15  21976.747180  19667.977332  -2571.227431    810.244674
PE18  25919.667059   3611.989108  -7400.063012  -1595.603594
PE19   5964.997056 -18788.460737 -22069.444376    295.685152
PE21  12957.578115 -22920.530481 -13524.447538   -669.173879
PE24 -16931.494124   1996.410848  24183.804759   -940.589386
PE25 -13049.306879  22771.268071  13694.666195   -536.119859
PE26  11698.464234 -11434.615282  24667.322429   1723.759938
PE27  16938.253794  -3077.611476 -24076.177778    -48.596571
PE30  10379.534640  19360.625021 -19842.868957   2884.829629
PE31 -10942.519324 -18437.823618  20413.790516   -481.932817
PE33  -6732.266545 -21397.414127  19306.720806   -469.428643
PE36 -12273.307750  10720.690941 -24711.760735   -217.342921
PG01  20349.359907  11481.734642  12689.805039    666.609062
PG02 -11882.264963 -21909.022608   9746.455647   -610.313533
PG03  14949.392017   2478.111670  21717.752221   -184.651296
PG04  25421.962045   1762.918480   7607.084775   -199.022411
PG05  -8505.195014 -16823.545935 -18796.176311    -44.164983
PG06  -1569.848474 -19972.296768  17465.604420     23.827615
PG07  16705.885123  -2439.799225 -20262.444610    171.337573
PG08  20050.210134   7333.847231 -16002.821494    -24.090190
PG09  25382.914889  -7229.997851  -3161.812505   -349.749516
PG10 -11673.031496  23237.834860  -4524.627607   -137.063152
PG12 -13922.586695  -5128.297623  21773.796094    -51.368163
PG13 -11991.929240 -13178.867816 -19872.535858    141.509261
PG14  12945.379683 -22701.174757  -4654.665450     73.975028
PG15 -21022.364062  -5951.240656 -15700.656019   -144.212592
PG16   2759.418273  20583.984709 -16531.436443   -337.100486
PG17  16349.353556 -13130.332797  16728.655628    454.314966
PG18 -14225.469941   6030.319368 -21622.747024    347.893073
PG19   7656.870963 -14402.873845  20647.127678      9.913407
PG20 -10914.119895 -15367.323971 -18814.267982    521.430679
PG21  21215.294191  15428.971106   6297.474362    123.277356
PG22  12119.773351  12708.764288  20167.625732   -595.203024
PG23 -15831.573429  15591.692263 -14532.132195     99.632683
PG24 -21380.728174 -14075.178383   7564.738538    119.258421
PG25 -16739.875436   8507.643309  18411.592071    151.076300
PG26  -2533.390210  25336.277364  -7102.441197     95.023876
PG27   9495.464483  13009.507986 -21364.459683   -142.790585
PG28   9897.747405 -24689.024015   2373.073508    559.030975
PG29 -26069.023877   4492.018660  -2725.982693   -359.758570
PG30   7287.674748 -15051.480076 -20525.263030   -435.697422
PG31   3432.930659  21334.733439  15045.253462   -121.569442
PG32 -13247.580660  14984.604456  17504.307610     19.350260
PJ01 -30340.862725  29337.431689   6444.227438   -391.165943
PJ02 -27809.214046  26448.068529  22468.928279     -0.147640
PJ03 -29736.211514  16605.692094 -20191.159765     -7.362279
PR01    352.377922  13229.022315  21816.649992     80.501973
PR02  17071.837601  -1764.108587  18940.479100    481.405195
PR03  21115.248593 -13713.671749   4300.483003     37.242717
PR04  13320.962325 -17700.338142 -12617.198830     90.129930
PR05  -1834.790347 -11870.062270 -22489.599399     73.098995
PR07 -20967.620574  14049.251031  -3498.067355    -42.379181
PR08 -13129.263191  17780.512501  12777.461919    -59.386633
PR09 -11668.982967  -9407.348689  20636.092597     -3.390310
PR11  -1613.513909  23091.101164  10746.144731     -9.794594
PR12   6815.671161  23434.545270  -7364.545497    235.034503
PR13  11391.879623  10227.542888 -20418.462087    -55.867930
PR14   9193.328245  -9732.350718 -21695.924196     65.058697
PR15   1725.773330 -23302.248622 -10207.637059    103.409012
PR16  -7840.315184 -22862.277064   8330.705263    -16.023252
PR17  18893.183269   -559.350041  17111.355163    430.409892
PR18   4038.432666  -9638.772234  23276.371400     79.134850
PR19 -11968.056424 -14009.185376  17634.186895   -146.708348
PR20 -23306.128711 -10292.501609   -608.813317    -50.420113
PR21 -18096.733842   1160.217258 -17957.823934   -214.580784
PR22  -2836.373955  10089.933062 -23278.672129   -116.377443
PR24  23597.750681   9577.583911   1348.495262     45.519657
EOF
